[{"OBJECT_NAME":"NORBI","OBJECT_ID":"2020-068J","EPOCH":"2026-03-09T22:53:13.265664","MEAN_MOTION":15.44044955,"ECCENTRICITY":0.0005003,"INCLINATION":97.87,"RA_OF_ASC_NODE":76.4836,"ARG_OF_PERICENTER":248.0975,"MEAN_ANOMALY":111.9741,"EPHEMERIS_TYPE":0,"CLASSIFICATION_TYPE":"U","NORAD_CAT_ID":46494,"ELEMENT_SET_NO":999,"REV_AT_EPOCH":30087,"BSTAR":0.00067842261,"MEAN_MOTION_DOT":0.00030968,"MEAN_MOTION_DDOT":0},{"OBJECT_NAME":"FENGYUN 1C DEB","OBJECT_ID":"1999-025AUA","EPOCH":"2026-03-09T22:20:03.086592","MEAN_MOTION":15.37519861,"ECCENTRICITY":0.00616014,"INCLINATION":98.7858,"RA_OF_ASC_NODE":60.8335,"ARG_OF_PERICENTER":230.1589,"MEAN_ANOMALY":129.4222,"EPHEMERIS_TYPE":0,"CLASSIFICATION_TYPE":"U","NORAD_CAT_ID":30764,"ELEMENT_SET_NO":999,"REV_AT_EPOCH":2558,"BSTAR":0.00082447851,"MEAN_MOTION_DOT":0.00032356,"MEAN_MOTION_DDOT":0}]
